[{"OBJECT_NAME":"ONEWEB-0185","OBJECT_ID":"2021-031L","EPOCH":"2026-03-09T17:33:55.258848","MEAN_MOTION":13.14501597,"ECCENTRICITY":0.0001793,"INCLINATION":87.8986,"RA_OF_ASC_NODE":309.5376,"ARG_OF_PERICENTER":69.2834,"MEAN_ANOMALY":290.8488,"EPHEMERIS_TYPE":0,"CLASSIFICATION_TYPE":"U","NORAD_CAT_ID":48220,"ELEMENT_SET_NO":999,"REV_AT_EPOCH":23518,"BSTAR":0.00076662617,"MEAN_MOTION_DOT":2.97e-6,"MEAN_MOTION_DDOT":0},{"OBJECT_NAME":"COSMOS 272","OBJECT_ID":"1969-024A","EPOCH":"2026-03-09T09:10:59.785824","MEAN_MOTION":13.17947174,"ECCENTRICITY":0.00200905,"INCLINATION":73.9906,"RA_OF_ASC_NODE":46.7794,"ARG_OF_PERICENTER":261.2276,"MEAN_ANOMALY":209.2019,"EPHEMERIS_TYPE":0,"CLASSIFICATION_TYPE":"U","NORAD_CAT_ID":3818,"ELEMENT_SET_NO":999,"REV_AT_EPOCH":74070,"BSTAR":-0.00037353481,"MEAN_MOTION_DOT":-1.65e-6,"MEAN_MOTION_DDOT":0}]
